start=new Date('2023-03-01T00:00:00.000Z').valueOf();
sats=[{"MEAN_MOTION_DOT":"0.00080472","TIME_SYSTEM":"UTC","LAUNCH_DATE":"2023-02-12","TLE_LINE1":"1 55623U 23020BG  23059.86619254  .00080472  00000-0  61160-3 0  9996","DECAY_DATE":null,"REV_AT_EPOCH":"263","OBJECT_NAME":"STARLINK-5698","TLE_LINE2":"2 55623  42.9997 255.8013 0002117 275.4544  84.6083 15.71338650  2638","ELEMENT_SET_NO":"999","MEAN_MOTION":"15.71338650","SEMIMAJOR_AXIS":"6733.207","NORAD_CAT_ID":"55623","COUNTRY_CODE":"US","OBJECT_ID":"2023-020BG","EPOCH":"2023-02-28T20:47:19.035456","MEAN_ELEMENT_THEORY":"SGP4","REF_FRAME":"TEME","INCLINATION":"42.9997","RA_OF_ASC_NODE":"255.8013","SITE":"AFETR","PERIOD":"91.642","OBJECT_TYPE":"PAYLOAD","GP_ID":"227271091","MEAN_ANOMALY":"84.6083","FILE":"3847656","ECCENTRICITY":"0.00021170","EPHEMERIS_TYPE":"0","BSTAR":"0.00061160000000","CENTER_NAME":"EARTH","RCS_SIZE":"LARGE","CLASSIFICATION_TYPE":"U","PERIAPSIS":"353.647","MEAN_MOTION_DDOT":"0.0000000000000","ARG_OF_PERICENTER":"275.4544","APOAPSIS":"356.498"},{"CENTER_NAME":"EARTH","RCS_SIZE":null,"CLASSIFICATION_TYPE":"U","PERIAPSIS":"324.521","ARG_OF_PERICENTER":"280.6903","MEAN_MOTION_DDOT":"0.0000000000000","APOAPSIS":"329.519","MEAN_ANOMALY":"191.5285","FILE":"3847656","ECCENTRICITY":"0.00037270","EPHEMERIS_TYPE":"0","BSTAR":"-0.00578760000000","NORAD_CAT_ID":"55628","OBJECT_ID":"2023-021A","COUNTRY_CODE":"US","EPOCH":"2023-02-28T22:00:00.999936","INCLINATION":"70.0001","REF_FRAME":"TEME","MEAN_ELEMENT_THEORY":"SGP4","RA_OF_ASC_NODE":"118.7436","PERIOD":"91.069","SITE":"AFWTR","OBJECT_TYPE":"PAYLOAD","GP_ID":"227270998","LAUNCH_DATE":"2023-02-17","MEAN_MOTION_DOT":"-0.01014605","TIME_SYSTEM":"UTC","TLE_LINE1":"1 55628U 23021A   23059.91667824 -.01014605  00000-0 -57876-2 0  9990","DECAY_DATE":null,"OBJECT_NAME":"STARLINK-5484","REV_AT_EPOCH":"130","TLE_LINE2":"2 55628  70.0001 118.7436 0003727 280.6903 191.5285 15.81209991  1303","ELEMENT_SET_NO":"999","MEAN_MOTION":"15.81209991","SEMIMAJOR_AXIS":"6705.155"},{"TLE_LINE2":"2 55629  70.0001 118.7440 0003710 280.4911 191.3356 15.81201248  1302","ELEMENT_SET_NO":"999","MEAN_MOTION":"15.81201248","SEMIMAJOR_AXIS":"6705.180","MEAN_MOTION_DOT":"-0.01016929","TIME_SYSTEM":"UTC","LAUNCH_DATE":"2023-02-17","TLE_LINE1":"1 55629U 23021B   23059.91667824 -.01016929  00000-0 -58049-2 0  9995","DECAY_DATE":null,"REV_AT_EPOCH":"130","OBJECT_NAME":"STARLINK-5497","MEAN_ELEMENT_THEORY":"SGP4","REF_FRAME":"TEME","INCLINATION":"70.0001","RA_OF_ASC_NODE":"118.7440","SITE":"AFWTR","PERIOD":"91.070","GP_ID":"227271076","OBJECT_TYPE":"PAYLOAD","NORAD_CAT_ID":"55629","COUNTRY_CODE":"US","OBJECT_ID":"2023-021B","EPOCH":"2023-02-28T22:00:00.999936","EPHEMERIS_TYPE":"0","BSTAR":"-0.00580490000000","MEAN_ANOMALY":"191.3356","FILE":"3847656","ECCENTRICITY":"0.00037100","CLASSIFICATION_TYPE":"U","PERIAPSIS":"324.557","MEAN_MOTION_DDOT":"0.0000000000000","ARG_OF_PERICENTER":"280.4911","APOAPSIS":"329.532","CENTER_NAME":"EARTH","RCS_SIZE":"LARGE"},{"PERIAPSIS":"324.718","CLASSIFICATION_TYPE":"U","APOAPSIS":"329.626","ARG_OF_PERICENTER":"284.2611","MEAN_MOTION_DDOT":"0.0000000000000","RCS_SIZE":"MEDIUM","CENTER_NAME":"EARTH","BSTAR":"-0.00525760000000","EPHEMERIS_TYPE":"0","FILE":"3847656","MEAN_ANOMALY":"188.4181","ECCENTRICITY":"0.00036600","RA_OF_ASC_NODE":"118.7429","INCLINATION":"70.0003","REF_FRAME":"TEME","MEAN_ELEMENT_THEORY":"SGP4","GP_ID":"227270983","OBJECT_TYPE":"PAYLOAD","PERIOD":"91.073","SITE":"AFWTR","OBJECT_ID":"2023-021C","COUNTRY_CODE":"US","NORAD_CAT_ID":"55630","EPOCH":"2023-02-28T22:00:00.999936","ELEMENT_SET_NO":"999","TLE_LINE2":"2 55630  70.0003 118.7429 0003660 284.2611 188.4181 15.81156187  1300","SEMIMAJOR_AXIS":"6705.307","MEAN_MOTION":"15.81156187","LAUNCH_DATE":"2023-02-17","TIME_SYSTEM":"UTC","MEAN_MOTION_DOT":"-0.00928754","DECAY_DATE":null,"REV_AT_EPOCH":"130","OBJECT_NAME":"STARLINK-5303","TLE_LINE1":"1 55630U 23021C   23059.91667824 -.00928754  00000-0 -52576-2 0  9993"},{"NORAD_CAT_ID":"55631","COUNTRY_CODE":"US","OBJECT_ID":"2023-021D","EPOCH":"2023-02-28T22:00:00.999936","REF_FRAME":"TEME","MEAN_ELEMENT_THEORY":"SGP4","INCLINATION":"69.9997","RA_OF_ASC_NODE":"118.7396","SITE":"AFWTR","PERIOD":"91.066","OBJECT_TYPE":"PAYLOAD","GP_ID":"227271092","MEAN_MOTION_DOT":"-0.00987929","TIME_SYSTEM":"UTC","LAUNCH_DATE":"2023-02-17","TLE_LINE1":"1 55631U 23021D   23059.91667824 -.00987929  00000-0 -56040-2 0  9993","OBJECT_NAME":"STARLINK-5558","DECAY_DATE":null,"REV_AT_EPOCH":"130","TLE_LINE2":"2 55631  69.9997 118.7396 0003621 279.8046 195.1827 15.81263288  1305","ELEMENT_SET_NO":"999","MEAN_MOTION":"15.81263288","SEMIMAJOR_AXIS":"6705.004","CENTER_NAME":"EARTH","RCS_SIZE":"MEDIUM","CLASSIFICATION_TYPE":"U","PERIAPSIS":"324.441","MEAN_MOTION_DDOT":"0.0000000000000","ARG_OF_PERICENTER":"279.8046","APOAPSIS":"329.297","MEAN_ANOMALY":"195.1827","FILE":"3847656","ECCENTRICITY":"0.00036210","EPHEMERIS_TYPE":"0","BSTAR":"-0.00560400000000"},{"SITE":"AFWTR","PERIOD":"91.068","GP_ID":"227271061","OBJECT_TYPE":"PAYLOAD","REF_FRAME":"TEME","MEAN_ELEMENT_THEORY":"SGP4","INCLINATION":"69.9998","RA_OF_ASC_NODE":"118.7420","EPOCH":"2023-02-28T22:00:00.999936","NORAD_CAT_ID":"55632","COUNTRY_CODE":"US","OBJECT_ID":"2023-021E","MEAN_MOTION":"15.81229849","SEMIMAJOR_AXIS":"6705.099","TLE_LINE2":"2 55632  69.9998 118.7420 0003670 280.0055 193.4238 15.81229849  1305","ELEMENT_SET_NO":"999","TLE_LINE1":"1 55632U 23021E   23059.91667824 -.01000550  00000-0 -56928-2 0  9996","REV_AT_EPOCH":"130","DECAY_DATE":null,"OBJECT_NAME":"STARLINK-5546","TIME_SYSTEM":"UTC","MEAN_MOTION_DOT":"-0.01000550","LAUNCH_DATE":"2023-02-17","MEAN_MOTION_DDOT":"0.0000000000000","ARG_OF_PERICENTER":"280.0055","APOAPSIS":"329.424","CLASSIFICATION_TYPE":"U","PERIAPSIS":"324.503","CENTER_NAME":"EARTH","RCS_SIZE":"MEDIUM","EPHEMERIS_TYPE":"0","BSTAR":"-0.00569280000000","ECCENTRICITY":"0.00036700","MEAN_ANOMALY":"193.4238","FILE":"3847656"},{"CENTER_NAME":"EARTH","RCS_SIZE":null,"MEAN_MOTION_DDOT":"0.0000000000000","ARG_OF_PERICENTER":"265.3914","APOAPSIS":"329.854","CLASSIFICATION_TYPE":"U","PERIAPSIS":"325.120","ECCENTRICITY":"0.00035300","MEAN_ANOMALY":"322.6217","FILE":"3847840","EPHEMERIS_TYPE":"0","BSTAR":"-0.00557010000000","EPOCH":"2023-03-01T00:00:00.999648","NORAD_CAT_ID":"55633","COUNTRY_CODE":"US","OBJECT_ID":"2023-021F","SITE":"AFWTR","PERIOD":"91.079","GP_ID":"227275822","OBJECT_TYPE":"PAYLOAD","REF_FRAME":"TEME","MEAN_ELEMENT_THEORY":"SGP4","INCLINATION":"70.0001","RA_OF_ASC_NODE":"118.5035","TLE_LINE1":"1 55633U 23021F   23060.00001157 -.00973625  00000-0 -55701-2 0  9999","DECAY_DATE":null,"OBJECT_NAME":"STARLINK-5498","REV_AT_EPOCH":"230","TIME_SYSTEM":"UTC","MEAN_MOTION_DOT":"-0.00973625","LAUNCH_DATE":"2023-02-17","MEAN_MOTION":"15.81044754","SEMIMAJOR_AXIS":"6705.622","TLE_LINE2":"2 55633  70.0001 118.5035 0003530 265.3914 322.6217 15.81044754  2303","ELEMENT_SET_NO":"999"},{"INCLINATION":"69.9999","MEAN_ELEMENT_THEORY":"SGP4","REF_FRAME":"TEME","RA_OF_ASC_NODE":"118.7422","PERIOD":"91.070","SITE":"AFWTR","GP_ID":"227271046","OBJECT_TYPE":"PAYLOAD","NORAD_CAT_ID":"55634","OBJECT_ID":"2023-021G","COUNTRY_CODE":"US","EPOCH":"2023-02-28T22:00:00.999936","TLE_LINE2":"2 55634  69.9999 118.7422 0003638 280.2132 192.8271 15.81209366  1304","ELEMENT_SET_NO":"999","MEAN_MOTION":"15.81209366","SEMIMAJOR_AXIS":"6705.157","LAUNCH_DATE":"2023-02-17","MEAN_MOTION_DOT":"-0.00987549","TIME_SYSTEM":"UTC","TLE_LINE1":"1 55634U 23021G   23059.91667824 -.00987549  00000-0 -56156-2 0  9992","REV_AT_EPOCH":"130","DECAY_DATE":null,"OBJECT_NAME":"STARLINK-5500","CLASSIFICATION_TYPE":"U","PERIAPSIS":"324.582","ARG_OF_PERICENTER":"280.2132","MEAN_MOTION_DDOT":"0.0000000000000","APOAPSIS":"329.461","RCS_SIZE":"LARGE","CENTER_NAME":"EARTH","EPHEMERIS_TYPE":"0","BSTAR":"-0.00561560000000","MEAN_ANOMALY":"192.8271","FILE":"3847656","ECCENTRICITY":"0.00036380"},{"NORAD_CAT_ID":"55635","COUNTRY_CODE":"US","OBJECT_ID":"2023-021H","EPOCH":"2023-03-01T00:00:00.999648","MEAN_ELEMENT_THEORY":"SGP4","REF_FRAME":"TEME","INCLINATION":"70.0002","RA_OF_ASC_NODE":"118.5003","SITE":"AFWTR","PERIOD":"91.075","OBJECT_TYPE":"PAYLOAD","GP_ID":"227275332","MEAN_MOTION_DOT":"-0.00974642","TIME_SYSTEM":"UTC","LAUNCH_DATE":"2023-02-17","TLE_LINE1":"1 55635U 23021H   23060.00001157 -.00974642  00000-0 -55567-2 0  9991","DECAY_DATE":null,"OBJECT_NAME":"STARLINK-5495","REV_AT_EPOCH":"230","TLE_LINE2":"2 55635  70.0002 118.5003 0003568 273.3775 317.3725 15.81121164  2302","ELEMENT_SET_NO":"999","MEAN_MOTION":"15.81121164","SEMIMAJOR_AXIS":"6705.406","RCS_SIZE":"MEDIUM","CENTER_NAME":"EARTH","CLASSIFICATION_TYPE":"U","PERIAPSIS":"324.878","MEAN_MOTION_DDOT":"0.0000000000000","ARG_OF_PERICENTER":"273.3775","APOAPSIS":"329.663","MEAN_ANOMALY":"317.3725","FILE":"3847841","ECCENTRICITY":"0.00035680","EPHEMERIS_TYPE":"0","BSTAR":"-0.00555670000000"},{"RA_OF_ASC_NODE":"118.7408","REF_FRAME":"TEME","MEAN_ELEMENT_THEORY":"SGP4","INCLINATION":"70.0003","GP_ID":"227270999","OBJECT_TYPE":"PAYLOAD","SITE":"AFWTR","PERIOD":"91.067","COUNTRY_CODE":"US","OBJECT_ID":"2023-021J","NORAD_CAT_ID":"55636","EPOCH":"2023-02-28T22:00:00.999936","ELEMENT_SET_NO":"999","TLE_LINE2":"2 55636  70.0003 118.7408 0003796 281.2503 193.3452 15.81258598  1305","SEMIMAJOR_AXIS":"6705.017","MEAN_MOTION":"15.81258598","TIME_SYSTEM":"UTC","MEAN_MOTION_DOT":"-0.00994237","LAUNCH_DATE":"2023-02-17","OBJECT_NAME":"STARLINK-5218","DECAY_DATE":null,"REV_AT_EPOCH":"130","TLE_LINE1":"1 55636U 23021J   23059.91667824 -.00994237  00000-0 -56446-2 0  9998","PERIAPSIS":"324.337","CLASSIFICATION_TYPE":"U","APOAPSIS":"329.428","MEAN_MOTION_DDOT":"0.0000000000000","ARG_OF_PERICENTER":"281.2503","CENTER_NAME":"EARTH","RCS_SIZE":null,"BSTAR":"-0.00564460000000","EPHEMERIS_TYPE":"0","FILE":"3847656","MEAN_ANOMALY":"193.3452","ECCENTRICITY":"0.00037960"}];
